{"epoch":1784762836,"count":18316,"objects":[{"id":"28051","name":"IRS P6","type":"PAYLOAD","l1":"1 28051U 03046A   26203.62767569  .00000197  00000-0  79956-4 0  9997","l2":"2 28051  98.1893 238.4042 0062964 235.2012 222.5647 14.36172978185618"},{"id":"28371","name":"SAUDISAT 2","type":"PAYLOAD","l1":"1 28371U 04025F   26203.47245355  .00000177  00000-0  50668-4 0  9994","l2":"2 28371  98.5525 204.3692 0024534 185.5038 174.5894 14.56701025170884"},{"id":"28380","name":"COSMOS 2407","type":"PAYLOAD","l1":"1 28380U 04028A   26203.34693873  .00000040  00000-0  24947-4 0  9995","l2":"2 28380  82.9584  48.7879 0039814 152.2519  20.5802 13.76336919104710"},{"id":"28521","name":"COSMOS 2414","type":"PAYLOAD","l1":"1 28521U 05002A   26203.42880123  .00000072  00000-0  47273-4 0  9992","l2":"2 28521  82.9494  16.9817 0039085 227.5451 132.2406 13.87928969 88702"},{"id":"28628","name":"INMARSAT 4-F1","type":"PAYLOAD","l1":"1 28628U 05009A   26203.29313831  .00000032  00000-0  00000-0 0  9998","l2":"2 28628   5.2162  42.7960 0002873  73.5770 107.2988  1.00273162 78025"},{"id":"28650","name":"HAMSAT","type":"PAYLOAD","l1":"1 28650U 05017B   26203.31309408  .00003367  00000-0  21095-3 0  9994","l2":"2 28650  97.9904 227.8783 0017302 277.9858  81.9406 15.09998359152067"},{"id":"28654","name":"NOAA 18","type":"PAYLOAD","l1":"1 28654U 05018A   26203.57996856  .00000021  00000-0  34289-4 0  9990","l2":"2 28654  98.8104 282.7421 0015072  53.5591 306.6969 14.13735027 91312"},{"id":"28737","name":"SJ-7","type":"PAYLOAD","l1":"1 28737U 05024A   26203.07158807  .00007460  00000-0  32912-3 0  9994","l2":"2 28737  97.7276 234.1226 0013627 269.7595  90.2079 15.22001765153330"},{"id":"28895","name":"CUBESAT XI 5","type":"PAYLOAD","l1":"1 28895U 05043F   26202.37477685  .00000932  00000-0  15414-3 0  9995","l2":"2 28895  98.3024 358.7230 0015344  97.2573 263.0378 14.72712744106788"},{"id":"29107","name":"CLOUDSAT","type":"PAYLOAD","l1":"1 29107U 06016A   26203.55765821  .00000705  00000-0  86700-4 0  9991","l2":"2 29107  98.3912 242.8068 0004610 203.9184 156.1816 14.86454595 79769"},{"id":"29108","name":"CALIPSO","type":"PAYLOAD","l1":"1 29108U 06016B   26203.50289579  .00000588  00000-0  10828-3 0  9994","l2":"2 29108  98.4472 220.3715 0001552 109.0554 251.0819 14.69409487 78242"},{"id":"29479","name":"HINODE (SOLAR B)","type":"PAYLOAD","l1":"1 29479U 06041A   26203.00027503  .00000561  00000-0  10463-3 0  9991","l2":"2 29479  98.0548 218.6399 0017621 172.7614 187.3849 14.68664645 59981"},{"id":"29499","name":"METOP-A","type":"PAYLOAD","l1":"1 29499U 06044A   26203.60498843  .00000676  00000-0  84950-4 0  9991","l2":"2 29499  98.3353 311.4240 0172673 316.7542 236.0972 14.76056902 30670"},{"id":"29506","name":"SHIJIAN 6 02B (SJ-6 02B)","type":"PAYLOAD","l1":"1 29506U 06046B   26203.60166100  .00000807  00000-0  67115-4 0  9990","l2":"2 29506  97.7143 232.4403 0012526 309.4246  50.5869 15.01446195 76054"},{"id":"29522","name":"DMSP 5D-3 F17 (USA 191)","type":"PAYLOAD","l1":"1 29522U 06050A   26203.52528489 -.00000003  00000-0  21041-4 0  9993","l2":"2 29522  98.7391 209.3741 0009317 320.7625  39.2872 14.14996602 17427"},{"id":"29709","name":"LAPAN-TUBSAT","type":"PAYLOAD","l1":"1 29709U 07001A   26203.60640986  .00000029  00000-0  99077-5 0  9995","l2":"2 29709  98.1363 203.6321 0013588  72.3643 287.9054 14.85979262 56410"},{"id":"31113","name":"HAIYANG 1B","type":"PAYLOAD","l1":"1 31113U 07010A   26202.68528257  .00000071  00000-0  42646-4 0  9996","l2":"2 31113  98.3520 183.1967 0014827  98.2130 262.0736 14.31034509  5571"},{"id":"31115","name":"BEIDOU 2","type":"PAYLOAD","l1":"1 31115U 07011A   26201.64567108  .00000051  00000-0  00000-0 0  9994","l2":"2 31115  50.9225 218.1656 0002111 328.6539  31.3669  1.77349452 76740"},{"id":"31130","name":"CAPE 1","type":"PAYLOAD","l1":"1 31130U 07012P   26203.48277948  .00000988  00000-0  18572-3 0  9991","l2":"2 31130  98.4487 178.9294 0082502 321.8823  37.6561 14.64967119 23522"},{"id":"32062","name":"CBERS 2B","type":"PAYLOAD","l1":"1 32062U 07042A   26203.59575846  .00000145  00000-0  57692-4 0  9991","l2":"2 32062  98.3931 147.6304 0029957 226.7680 310.4492 14.41491179989781"},{"id":"32376","name":"SKYMED 2","type":"PAYLOAD","l1":"1 32376U 07059A   26203.60408675  .00000302  00000-0  44477-4 0  9996","l2":"2 32376  97.8898  26.6903 0001480  93.9192 266.2191 14.82154756  7258"},{"id":"32783","name":"CARTOSAT 2A","type":"PAYLOAD","l1":"1 32783U 08021A   26203.55882304  .00000785  00000-0  11223-3 0  9994","l2":"2 32783  97.7613 251.0569 0011854   4.4495 355.6820 14.79282770984031"},{"id":"32785","name":"CUTE-1.7+APD 2","type":"PAYLOAD","l1":"1 32785U 08021C   26203.51168664  .00004854  00000-0  30490-3 0  9996","l2":"2 32785  97.8297 185.6775 0006938 268.2388  91.8046 15.09743996990527"},{"id":"32791","name":"SEEDS","type":"PAYLOAD","l1":"1 32791U 08021J   26203.44081651  .00019519  00000-0  59788-3 0  9990","l2":"2 32791  97.7536 203.0544 0003833 141.9870 218.1643 15.33845449992692"},{"id":"32953","name":"YUBELEINY","type":"PAYLOAD","l1":"1 32953U 08025A   26203.58929929 -.00000020  00000-0 -21776-3 0  9993","l2":"2 32953  82.5069 333.4184 0018806 232.0345 127.9036 12.43180754824098"},{"id":"32958","name":"FENGYUN 3A","type":"PAYLOAD","l1":"1 32958U 08026A   26203.57093848  .00000048  00000-0  43355-4 0  9996","l2":"2 32958  98.6886 143.7435 0009363  32.4409 327.7342 14.19577609940420"},{"id":"33320","name":"HJ-1A","type":"PAYLOAD","l1":"1 33320U 08041A   26203.63222883  .00000609  00000-0  78952-4 0  9991","l2":"2 33320  97.6710 188.1052 0019820  26.6315 333.5913 14.84058689963661"},{"id":"33321","name":"HJ-1B","type":"PAYLOAD","l1":"1 33321U 08041B   26203.61760626  .00000643  00000-0  83686-4 0  9990","l2":"2 33321  97.6546 191.1551 0037946  68.0135 292.5105 14.83374904963663"},{"id":"33408","name":"SHIJIAN 6 03A (SJ-6 03A)","type":"PAYLOAD","l1":"1 33408U 08053A   26203.59420977  .00005932  00000-0  29953-3 0  9990","l2":"2 33408  97.8399 238.1504 0009577 245.9958 114.0272 15.17464833968336"},{"id":"33409","name":"SHIJIAN 6 03B (SJ-6 03B)","type":"PAYLOAD","l1":"1 33409U 08053B   26203.61888795  .00000746  00000-0  57979-4 0  9998","l2":"2 33409  97.8561 224.0979 0017925 282.9577  76.9647 15.04383248968071"}]}