OBJECT_NAME,OBJECT_ID,EPOCH,MEAN_MOTION,ECCENTRICITY,INCLINATION,RA_OF_ASC_NODE,ARG_OF_PERICENTER,MEAN_ANOMALY,EPHEMERIS_TYPE,CLASSIFICATION_TYPE,NORAD_CAT_ID,ELEMENT_SET_NO,REV_AT_EPOCH,BSTAR,MEAN_MOTION_DOT,MEAN_MOTION_DDOT
IRS-P6 (RESOURCESAT-1),2003-046A,2026-07-22T15:03:51.179616,14.36172978,.00629637,98.1893,238.4042,235.2012,222.5647,0,U,28051,999,18561,.79955675E-4,.197E-5,0
SAUDISAT 2,2004-025F,2026-07-22T11:20:19.986720,14.56701025,.00245337,98.5525,204.3692,185.5038,174.5894,0,U,28371,999,17088,.50667567E-4,.177E-5,0
COSMOS 2407,2004-028A,2026-07-22T08:19:35.506272,13.76336919,.00398142,82.9584,48.7879,152.2519,20.5802,0,U,28380,999,10471,.24947226E-4,.4E-6,0
COSMOS 2414,2005-002A,2026-07-22T10:17:28.426272,13.87928969,.00390852,82.9494,16.9817,227.5451,132.2406,0,U,28521,999,8870,.47273011E-4,.72E-6,0
INMARSAT 4-F1,2005-009A,2026-07-22T07:02:07.149984,1.00273162,.00028733,5.2162,42.7960,73.5770,107.2988,0,U,28628,999,7802,0,.32E-6,0
HAMSAT (VO-52),2005-017B,2026-07-22T07:30:51.328512,15.09998359,.00173021,97.9904,227.8783,277.9858,81.9406,0,U,28650,999,15206,.21095252E-3,.3367E-4,0
NOAA 18,2005-018A,2026-07-22T13:55:09.283584,14.13735027,.00150725,98.8104,282.7421,53.5591,306.6969,0,U,28654,999,9131,.34289421E-4,.21E-6,0
SJ-7,2005-024A,2026-07-22T01:43:05.209248,15.22001765,.00136269,97.7276,234.1226,269.7595,90.2079,0,U,28737,999,15333,.32911937E-3,.746E-4,0
CUBESAT XI-V,2005-043F,2026-07-21T08:59:40.719840,14.72712744,.0015344,98.3024,358.7230,97.2573,263.0378,0,U,28895,999,10678,.15413557E-3,.932E-5,0
CLOUDSAT,2006-016A,2026-07-22T13:23:01.669344,14.86454595,.00046103,98.3912,242.8068,203.9184,156.1816,0,U,29107,999,7976,.86700159E-4,.705E-5,0
CALIPSO,2006-016B,2026-07-22T12:04:10.196256,14.69409487,.00015516,98.4472,220.3715,109.0554,251.0819,0,U,29108,999,7824,.10828142E-3,.588E-5,0
HINODE (SOLAR-B),2006-041A,2026-07-22T00:00:23.762592,14.68664645,.00176209,98.0548,218.6399,172.7614,187.3849,0,U,29479,999,5998,.104629E-3,.561E-5,0
METOP-A,2006-044A,2026-07-22T14:31:11.000352,14.76056902,.0172673,98.3353,311.4240,316.7542,236.0972,0,U,29499,999,3067,.84950486E-4,.676E-5,0
SHIJIAN-6 02B (SJ-6 02B),2006-046B,2026-07-22T14:26:23.510400,15.01446195,.0012526,97.7143,232.4403,309.4246,50.5869,0,U,29506,999,7605,.67114618E-4,.807E-5,0
DMSP 5D-3 F17 (USA 191),2006-050A,2026-07-22T12:36:24.614496,14.14996602,.00093174,98.7391,209.3741,320.7625,39.2872,0,U,29522,999,1742,.21040562E-4,-.3E-7,0
LAPAN-TUBSAT,2007-001A,2026-07-22T14:33:13.811904,14.85979262,.00135879,98.1363,203.6321,72.3643,287.9054,0,U,29709,999,5641,.9907676E-5,.29E-6,0
HAIYANG-1B,2007-010A,2026-07-21T16:26:48.414048,14.31034509,.00148267,98.3520,183.1967,98.2130,262.0736,0,U,31113,999,557,.42645743E-4,.71E-6,0
BEIDOU-2 M1,2007-011A,2026-07-20T15:29:45.981312,1.77349452,.00021108,50.9225,218.1656,328.6539,31.3669,0,U,31115,999,7674,0,.51E-6,0
CAPE-1,2007-012P,2026-07-22T11:35:12.147072,14.64967119,.00825024,98.4487,178.9294,321.8823,37.6561,0,U,31130,999,2352,.18572073E-3,.988E-5,0
CBERS 2B,2007-042A,2026-07-22T14:17:53.530944,14.41491179,.00299573,98.3931,147.6304,226.7680,310.4492,0,U,32062,999,98978,.57691518E-4,.145E-5,0
COSMO-SKYMED 2,2007-059A,2026-07-22T14:29:53.095200,14.82154756,.00014802,97.8898,26.6903,93.9192,266.2191,0,U,32376,999,725,.44477032E-4,.302E-5,0
CARTOSAT-2A,2008-021A,2026-07-22T13:24:42.310656,14.79282770,.00118541,97.7613,251.0569,4.4495,355.6820,0,U,32783,999,98403,.11222754E-3,.785E-5,0
CUTE-1.7+APD II (CO-65),2008-021C,2026-07-22T12:16:49.725696,15.09743996,.00069379,97.8297,185.6775,268.2388,91.8046,0,U,32785,999,99052,.30489993E-3,.4854E-4,0
SEEDS II (CO-66),2008-021J,2026-07-22T10:34:46.546464,15.33845449,.00038326,97.7536,203.0544,141.9870,218.1643,0,U,32791,999,99269,.5978764E-3,.19519E-3,0
YUBILEINY (RS30),2008-025A,2026-07-22T14:08:35.458656,12.43180754,.00188064,82.5069,333.4184,232.0345,127.9036,0,U,32953,999,82409,-.21775753E-3,-.2E-6,0
FENGYUN 3A,2008-026A,2026-07-22T13:42:09.084672,14.19577609,.00093632,98.6886,143.7435,32.4409,327.7342,0,U,32958,999,94042,.43355412E-4,.48E-6,0
HUANJING 1A (HJ-1A),2008-041A,2026-07-22T15:10:24.570912,14.84058689,.00198204,97.6710,188.1052,26.6315,333.5913,0,U,33320,999,96366,.78951971E-4,.609E-5,0
HUANJING 1B (HJ-1B),2008-041B,2026-07-22T14:49:21.180864,14.83374904,.00379456,97.6546,191.1551,68.0135,292.5105,0,U,33321,999,96366,.83686135E-4,.643E-5,0
SHIJIAN-6 03A (SJ-6 03A),2008-053A,2026-07-22T14:15:39.724128,15.17464833,.00095774,97.8399,238.1504,245.9958,114.0272,0,U,33408,999,96833,.29953101E-3,.5932E-4,0
SHIJIAN-6 03B (SJ-6 03B),2008-053B,2026-07-22T14:51:11.918880,15.04383248,.00179247,97.8561,224.0979,282.9577,76.9647,0,U,33409,999,96807,.57978763E-4,.746E-5,0
